{"type": "FeatureCollection", "features": [ {"type": "Feature", "properties": {"norad_id": 34875, "name": "COSMOS 2251 DEB", "group": "cosmos-2251-debris", "lat": -20.080800170285553, "lon": -23.283006389423754, "alt_km": 730.5973340312903, "timestamp": "2025-12-16T17:51:11.327708+00:00", "meta": {"OBJECT_NAME": "COSMOS 2251 DEB", "OBJECT_ID": "1993-036ACN", "EPOCH": "2025-12-15T21:44:24.238176", "MEAN_MOTION": 14.48937253, "ECCENTRICITY": 0.00161965, "INCLINATION": 74.0438, "RA_OF_ASC_NODE": 152.283, "ARG_OF_PERICENTER": 275.7732, "MEAN_ANOMALY": 235.6034, "EPHEMERIS_TYPE": 0, "CLASSIFICATION_TYPE": "U", "NORAD_CAT_ID": 34875, "ELEMENT_SET_NO": 999, "REV_AT_EPOCH": 87801, "BSTAR": 0.00038561454, "MEAN_MOTION_DOT": 1.436e-05, "MEAN_MOTION_DDOT": 0}, "tle": {"line1": "1 34875U 93036ACN 25349.90583609  .00001436  00000+0  38561-3 0  9990", "line2": "2 34875  74.0438 152.2830 0016196 275.7732 235.6034 14.48937253878015"}}, "geometry": {"type": "Point", "coordinates": [-23.283006389423754, -20.080800170285553]}}, {"type": "Feature", "properties": {"norad_id": 34878, "name": "COSMOS 2251 DEB", "group": "cosmos-2251-debris", "lat": -69.49528048810888, "lon": -88.7667662926144, "alt_km": 1285.6518777751025, "timestamp": "2025-12-16T17:51:11.327719+00:00", "meta": {"OBJECT_NAME": "COSMOS 2251 DEB", "OBJECT_ID": "1993-036ACR", "EPOCH": "2025-12-15T21:48:13.370976", "MEAN_MOTION": 13.44195012, "ECCENTRICITY": 0.04354662, "INCLINATION": 73.9648, "RA_OF_ASC_NODE": 42.2959, "ARG_OF_PERICENTER": 25.2, "MEAN_ANOMALY": 154.8462, "EPHEMERIS_TYPE": 0, "CLASSIFICATION_TYPE": "U", "NORAD_CAT_ID": 34878, "ELEMENT_SET_NO": 999, "REV_AT_EPOCH": 81315, "BSTAR": 0.00059672813, "MEAN_MOTION_DOT": 5.92e-06, "MEAN_MOTION_DDOT": 0}, "tle": {"line1": "1 34878U 93036ACR 25349.90848809  .00000592  00000+0  59673-3 0  9998", "line2": "2 34878  73.9648  42.2959 0435466  25.2000 154.8462 13.44195012813155"}}, "geometry": {"type": "Point", "coordinates": [-88.7667662926144, -69.49528048810888]}}, {"type": "Feature", "properties": {"norad_id": 34882, "name": "COSMOS 2251 DEB", "group": "cosmos-2251-debris", "lat": -32.2258768661373, "lon": -152.45069361121608, "alt_km": 637.8574688884273, "timestamp": "2025-12-16T17:51:11.327730+00:00", "meta": {"OBJECT_NAME": "COSMOS 2251 DEB", "OBJECT_ID": "1993-036ACV", "EPOCH": "2025-12-12T15:26:33.087264", "MEAN_MOTION": 14.61597611, "ECCENTRICITY": 0.00828094, "INCLINATION": 74.0462, "RA_OF_ASC_NODE": 225.7751, "ARG_OF_PERICENTER": 352.7324, "MEAN_ANOMALY": 7.2634, "EPHEMERIS_TYPE": 0, "CLASSIFICATION_TYPE": "U", "NORAD_CAT_ID": 34882, "ELEMENT_SET_NO": 999, "REV_AT_EPOCH": 88523, "BSTAR": 0.00026902724, "MEAN_MOTION_DOT": 1.371e-05, "MEAN_MOTION_DDOT": 0}, "tle": {"line1": "1 34882U 93036ACV 25346.64343851  .00001371  00000+0  26903-3 0  9994", "line2": "2 34882  74.0462 225.7751 0082809 352.7324   7.2634 14.61597611885231"}}, "geometry": {"type": "Point", "coordinates": [-152.45069361121608, -32.2258768661373]}}, {"type": "Feature", "properties": {"norad_id": 34883, "name": "COSMOS 2251 DEB", "group": "cosmos-2251-debris", "lat": -46.993641507068006, "lon": -107.07336411072829, "alt_km": 660.5448455675487, "timestamp": "2025-12-16T17:51:11.327740+00:00", "meta": {"OBJECT_NAME": "COSMOS 2251 DEB", "OBJECT_ID": "1993-036ACW", "EPOCH": "2025-12-15T14:19:48.613152", "MEAN_MOTION": 14.51596855, "ECCENTRICITY": 0.00947812, "INCLINATION": 74.2, "RA_OF_ASC_NODE": 57.3907, "ARG_OF_PERICENTER": 241.8918, "MEAN_ANOMALY": 117.264, "EPHEMERIS_TYPE": 0, "CLASSIFICATION_TYPE": "U", "NORAD_CAT_ID": 34883, "ELEMENT_SET_NO": 999, "REV_AT_EPOCH": 86481, "BSTAR": 0.0026019189, "MEAN_MOTION_DOT": 0.00011038, "MEAN_MOTION_DDOT": 0}, "tle": {"line1": "1 34883U 93036ACW 25349.59709043  .00011038  00000+0  26019-2 0  9999", "line2": "2 34883  74.2000  57.3907 0094781 241.8918 117.2640 14.51596855864811"}}, "geometry": {"type": "Point", "coordinates": [-107.07336411072829, -46.993641507068006]}}, {"type": "Feature", "properties": {"norad_id": 34884, "name": "COSMOS 2251 DEB", "group": "cosmos-2251-debris", "lat": -0.6353728293599258, "lon": 48.53760723439905, "alt_km": 599.1460683711339, "timestamp": "2025-12-16T17:51:11.327751+00:00", "meta": {"OBJECT_NAME": "COSMOS 2251 DEB", "OBJECT_ID": "1993-036ACX", "EPOCH": "2025-12-15T15:08:38.347296", "MEAN_MOTION": 14.90213268, "ECCENTRICITY": 0.00024476, "INCLINATION": 74.018, "RA_OF_ASC_NODE": 50.9487, "ARG_OF_PERICENTER": 64.9724, "MEAN_ANOMALY": 86.6106, "EPHEMERIS_TYPE": 0, "CLASSIFICATION_TYPE": "U", "NORAD_CAT_ID": 34884, "ELEMENT_SET_NO": 999, "REV_AT_EPOCH": 87848, "BSTAR": 0.0015426688, "MEAN_MOTION_DOT": 0.00014955, "MEAN_MOTION_DDOT": 0}, "tle": {"line1": "1 34884U 93036ACX 25349.63099939  .00014955  00000+0  15427-2 0  9993", "line2": "2 34884  74.0180  50.9487 0002447  64.9724  86.6106 14.90213268878489"}}, "geometry": {"type": "Point", "coordinates": [48.53760723439905, -0.6353728293599258]}}, {"type": "Feature", "properties": {"norad_id": 34885, "name": "COSMOS 2251 DEB", "group": "cosmos-2251-debris", "lat": 46.25835581706163, "lon": -167.10559671994383, "alt_km": 725.4007854316333, "timestamp": "2025-12-16T17:51:11.327761+00:00", "meta": {"OBJECT_NAME": "COSMOS 2251 DEB", "OBJECT_ID": "1993-036ACY", "EPOCH": "2025-12-15T22:19:31.941120", "MEAN_MOTION": 14.515201, "ECCENTRICITY": 0.00151448, "INCLINATION": 74.0299, "RA_OF_ASC_NODE": 177.0145, "ARG_OF_PERICENTER": 262.5133, "MEAN_ANOMALY": 216.2082, "EPHEMERIS_TYPE": 0, "CLASSIFICATION_TYPE": "U", "NORAD_CAT_ID": 34885, "ELEMENT_SET_NO": 999, "REV_AT_EPOCH": 87525, "BSTAR": 0.00049407806, "MEAN_MOTION_DOT": 1.951e-05, "MEAN_MOTION_DDOT": 0}, "tle": {"line1": "1 34885U 93036ACY 25349.93023080  .00001951  00000+0  49408-3 0  9990", "line2": "2 34885  74.0299 177.0145 0015144 262.5133 216.2082 14.51520100875250"}}, "geometry": {"type": "Point", "coordinates": [-167.10559671994383, 46.25835581706163]}}, {"type": "Feature", "properties": {"norad_id": 34886, "name": "COSMOS 2251 DEB", "group": "cosmos-2251-debris", "lat": -45.84934446444586, "lon": 155.05896907357032, "alt_km": 439.4680933951631, "timestamp": "2025-12-16T17:51:11.327771+00:00", "meta": {"OBJECT_NAME": "COSMOS 2251 DEB", "OBJECT_ID": "1993-036ACZ", "EPOCH": "2025-12-13T21:25:05.379168", "MEAN_MOTION": 15.38859949, "ECCENTRICITY": 0.00306549, "INCLINATION": 73.9501, "RA_OF_ASC_NODE": 178.4925, "ARG_OF_PERICENTER": 1.8054, "MEAN_ANOMALY": 358.3257, "EPHEMERIS_TYPE": 0, "CLASSIFICATION_TYPE": "U", "NORAD_CAT_ID": 34886, "ELEMENT_SET_NO": 999, "REV_AT_EPOCH": 63016, "BSTAR": 0.0017695785, "MEAN_MOTION_DOT": 0.00069737, "MEAN_MOTION_DDOT": 0}, "tle": {"line1": "1 34886U 93036ACZ 25347.89242337  .00069737  00000+0  17696-2 0  9991", "line2": "2 34886  73.9501 178.4925 0030654   1.8054 358.3257 15.38859949630168"}}, "geometry": {"type": "Point", "coordinates": [155.05896907357032, -45.84934446444586]}}, {"type": "Feature", "properties": {"norad_id": 34907, "name": "COSMOS 2251 DEB", "group": "cosmos-2251-debris", "lat": -24.620271311240312, "lon": 32.080803628339034, "alt_km": 418.4298969689844, "timestamp": "2025-12-16T17:51:11.327781+00:00", "meta": {"OBJECT_NAME": "COSMOS 2251 DEB", "OBJECT_ID": "1993-036ADC", "EPOCH": "2025-12-15T03:08:27.494592", "MEAN_MOTION": 15.45801338, "ECCENTRICITY": 0.00202571, "INCLINATION": 73.97, "RA_OF_ASC_NODE": 43.1829, "ARG_OF_PERICENTER": 337.9656, "MEAN_ANOMALY": 22.0681, "EPHEMERIS_TYPE": 0, "CLASSIFICATION_TYPE": "U", "NORAD_CAT_ID": 34907, "ELEMENT_SET_NO": 999, "REV_AT_EPOCH": 88010, "BSTAR": 0.0046562373, "MEAN_MOTION_DOT": 0.00234249, "MEAN_MOTION_DDOT": 0}, "tle": {"line1": "1 34907U 93036ADC 25349.13087378  .00234249  00000+0  46562-2 0  9992", "line2": "2 34907  73.9700  43.1829 0020257 337.9656  22.0681 15.45801338880107"}}, "geometry": {"type": "Point", "coordinates": [32.080803628339034, -24.620271311240312]}}, {"type": "Feature", "properties": {"norad_id": 34908, "name": "COSMOS 2251 DEB", "group": "cosmos-2251-debris", "lat": -73.67421223915423, "lon": -86.33963850419651, "alt_km": 790.3035525753903, "timestamp": "2025-12-16T17:51:11.327800+00:00", "meta": {"OBJECT_NAME": "COSMOS 2251 DEB", "OBJECT_ID": "1993-036ADD", "EPOCH": "2025-12-15T08:58:46.793280", "MEAN_MOTION": 14.37406702, "ECCENTRICITY": 0.00401573, "INCLINATION": 74.0593, "RA_OF_ASC_NODE": 18.8158, "ARG_OF_PERICENTER": 34.059, "MEAN_ANOMALY": 347.7513, "EPHEMERIS_TYPE": 0, "CLASSIFICATION_TYPE": "U", "NORAD_CAT_ID": 34908, "ELEMENT_SET_NO": 999, "REV_AT_EPOCH": 87317, "BSTAR": 0.00043548863, "MEAN_MOTION_DOT": 1.288e-05, "MEAN_MOTION_DDOT": 0}, "tle": {"line1": "1 34908U 93036ADD 25349.37415270  .00001288  00000+0  43549-3 0  9993", "line2": "2 34908  74.0593  18.8158 0040157  34.0590 347.7513 14.37406702873173"}}, "geometry": {"type": "Point", "coordinates": [-86.33963850419651, -73.67421223915423]}}, {"type": "Feature", "properties": {"norad_id": 34909, "name": "COSMOS 2251 DEB", "group": "cosmos-2251-debris", "lat": -72.91305202447441, "lon": -42.46069868185183, "alt_km": 613.359225187166, "timestamp": "2025-12-16T17:51:11.327810+00:00", "meta": {"OBJECT_NAME": "COSMOS 2251 DEB", "OBJECT_ID": "1993-036ADE", "EPOCH": "2025-12-14T15:55:30.641376", "MEAN_MOTION": 14.77856453, "ECCENTRICITY": 0.00843726, "INCLINATION": 74.0146, "RA_OF_ASC_NODE": 72.7889, "ARG_OF_PERICENTER": 208.1452, "MEAN_ANOMALY": 151.5151, "EPHEMERIS_TYPE": 0, "CLASSIFICATION_TYPE": "U", "NORAD_CAT_ID": 34909, "ELEMENT_SET_NO": 999, "REV_AT_EPOCH": 66880, "BSTAR": 0.00052421635, "MEAN_MOTION_DOT": 3.965e-05, "MEAN_MOTION_DDOT": 0}, "tle": {"line1": "1 34909U 93036ADE 25348.66354909  .00003965  00000+0  52422-3 0  9990", "line2": "2 34909  74.0146  72.7889 0084372 208.1452 151.5151 14.77856453668803"}}, "geometry": {"type": "Point", "coordinates": [-42.46069868185183, -72.91305202447441]}}]}